[{"OBJECT_NAME":"MONITOR-4 (RS57S)","OBJECT_ID":"2023-091S","EPOCH":"2026-03-09T23:02:36.101184","MEAN_MOTION":15.25833519,"ECCENTRICITY":0.00137053,"INCLINATION":97.5193,"RA_OF_ASC_NODE":131.7407,"ARG_OF_PERICENTER":91.587,"MEAN_ANOMALY":268.6938,"EPHEMERIS_TYPE":0,"CLASSIFICATION_TYPE":"U","NORAD_CAT_ID":57182,"ELEMENT_SET_NO":999,"REV_AT_EPOCH":14915,"BSTAR":0.00052093098,"MEAN_MOTION_DOT":0.000133,"MEAN_MOTION_DDOT":0},{"OBJECT_NAME":"STARLINK-31344","OBJECT_ID":"2024-044V","EPOCH":"2026-03-09T04:11:14.894016","MEAN_MOTION":15.27545255,"ECCENTRICITY":0.00011195,"INCLINATION":43.0007,"RA_OF_ASC_NODE":110.1981,"ARG_OF_PERICENTER":183.9546,"MEAN_ANOMALY":176.1297,"EPHEMERIS_TYPE":0,"CLASSIFICATION_TYPE":"U","NORAD_CAT_ID":59171,"ELEMENT_SET_NO":999,"REV_AT_EPOCH":11351,"BSTAR":0.00017849701,"MEAN_MOTION_DOT":4.648e-5,"MEAN_MOTION_DDOT":0}]
